{"type": "FeatureCollection", "features": [ {"type": "Feature", "properties": {"norad_id": 66618, "name": "STARLINK-35970", "group": "last-30-days", "lat": 52.822658199286124, "lon": -72.62404087184854, "alt_km": 405.3604438953771, "timestamp": "2025-12-12T09:49:07.481935+00:00", "meta": {"OBJECT_NAME": "STARLINK-35970", "OBJECT_ID": "2025-271B", "EPOCH": "2025-12-12T04:00:01.998720", "MEAN_MOTION": 15.52250506, "ECCENTRICITY": 0.0001238, "INCLINATION": 53.1591, "RA_OF_ASC_NODE": 189.8669, "ARG_OF_PERICENTER": 69.8476, "MEAN_ANOMALY": 110.3505, "EPHEMERIS_TYPE": 0, "CLASSIFICATION_TYPE": "U", "NORAD_CAT_ID": 66618, "ELEMENT_SET_NO": 999, "REV_AT_EPOCH": 415, "BSTAR": -0.034929, "MEAN_MOTION_DOT": -0.01935969, "MEAN_MOTION_DDOT": 0}, "tle": {"line1": "1 66618U 25271B   25346.16668980 -.01935969  00000+0 -34929-1 0  9999", "line2": "2 66618  53.1591 189.8669 0001238  69.8476 110.3505 15.52250506  4150"}}, "geometry": {"type": "Point", "coordinates": [-72.62404087184854, 52.822658199286124]}}, {"type": "Feature", "properties": {"norad_id": 66619, "name": "STARLINK-35951", "group": "last-30-days", "lat": 37.46824695476741, "lon": -136.12701166899518, "alt_km": 408.08299082889243, "timestamp": "2025-12-12T09:49:07.481947+00:00", "meta": {"OBJECT_NAME": "STARLINK-35951", "OBJECT_ID": "2025-271C", "EPOCH": "2025-12-12T04:00:01.998720", "MEAN_MOTION": 15.5222778, "ECCENTRICITY": 6.55e-05, "INCLINATION": 53.1595, "RA_OF_ASC_NODE": 189.9628, "ARG_OF_PERICENTER": 90.3044, "MEAN_ANOMALY": 44.245, "EPHEMERIS_TYPE": 0, "CLASSIFICATION_TYPE": "U", "NORAD_CAT_ID": 66619, "ELEMENT_SET_NO": 999, "REV_AT_EPOCH": 415, "BSTAR": -0.034015, "MEAN_MOTION_DOT": -0.01855945, "MEAN_MOTION_DDOT": 0}, "tle": {"line1": "1 66619U 25271C   25346.16668980 -.01855945  00000+0 -34015-1 0  9991", "line2": "2 66619  53.1595 189.9628 0000655  90.3044  44.2450 15.52227780  4155"}}, "geometry": {"type": "Point", "coordinates": [-136.12701166899518, 37.46824695476741]}}, {"type": "Feature", "properties": {"norad_id": 66620, "name": "STARLINK-35936", "group": "last-30-days", "lat": 33.580643227548606, "lon": -141.33563222691004, "alt_km": 408.6967375857248, "timestamp": "2025-12-12T09:49:07.481958+00:00", "meta": {"OBJECT_NAME": "STARLINK-35936", "OBJECT_ID": "2025-271D", "EPOCH": "2025-12-12T04:00:01.998720", "MEAN_MOTION": 15.52244894, "ECCENTRICITY": 7.1e-05, "INCLINATION": 53.1595, "RA_OF_ASC_NODE": 189.9763, "ARG_OF_PERICENTER": 88.9866, "MEAN_ANOMALY": 39.8057, "EPHEMERIS_TYPE": 0, "CLASSIFICATION_TYPE": "U", "NORAD_CAT_ID": 66620, "ELEMENT_SET_NO": 999, "REV_AT_EPOCH": 415, "BSTAR": -0.03461, "MEAN_MOTION_DOT": -0.01885602, "MEAN_MOTION_DDOT": 0}, "tle": {"line1": "1 66620U 25271D   25346.16668980 -.01885602  00000+0 -34610-1 0  9997", "line2": "2 66620  53.1595 189.9763 0000710  88.9866  39.8057 15.52244894  4152"}}, "geometry": {"type": "Point", "coordinates": [-141.33563222691004, 33.580643227548606]}}, {"type": "Feature", "properties": {"norad_id": 66621, "name": "STARLINK-35847", "group": "last-30-days", "lat": 52.25457808959908, "lon": -66.87644293055962, "alt_km": 405.4680520456286, "timestamp": "2025-12-12T09:49:07.481968+00:00", "meta": {"OBJECT_NAME": "STARLINK-35847", "OBJECT_ID": "2025-271E", "EPOCH": "2025-12-12T04:00:01.998720", "MEAN_MOTION": 15.52242172, "ECCENTRICITY": 0.0001245, "INCLINATION": 53.1593, "RA_OF_ASC_NODE": 189.8597, "ARG_OF_PERICENTER": 66.5504, "MEAN_ANOMALY": 117.188, "EPHEMERIS_TYPE": 0, "CLASSIFICATION_TYPE": "U", "NORAD_CAT_ID": 66621, "ELEMENT_SET_NO": 999, "REV_AT_EPOCH": 415, "BSTAR": -0.034566, "MEAN_MOTION_DOT": -0.0188364, "MEAN_MOTION_DDOT": 0}, "tle": {"line1": "1 66621U 25271E   25346.16668980 -.01883640  00000+0 -34566-1 0  9998", "line2": "2 66621  53.1593 189.8597 0001245  66.5504 117.1880 15.52242172  4151"}}, "geometry": {"type": "Point", "coordinates": [-66.87644293055962, 52.25457808959908]}}, {"type": "Feature", "properties": {"norad_id": 66622, "name": "STARLINK-35950", "group": "last-30-days", "lat": 38.710434325290485, "lon": -134.2709280705231, "alt_km": 407.8025504581692, "timestamp": "2025-12-12T09:49:07.481978+00:00", "meta": {"OBJECT_NAME": "STARLINK-35950", "OBJECT_ID": "2025-271F", "EPOCH": "2025-12-12T04:00:01.998720", "MEAN_MOTION": 15.52238444, "ECCENTRICITY": 7.49e-05, "INCLINATION": 53.1594, "RA_OF_ASC_NODE": 189.96, "ARG_OF_PERICENTER": 82.7218, "MEAN_ANOMALY": 53.7397, "EPHEMERIS_TYPE": 0, "CLASSIFICATION_TYPE": "U", "NORAD_CAT_ID": 66622, "ELEMENT_SET_NO": 999, "REV_AT_EPOCH": 415, "BSTAR": -0.034384, "MEAN_MOTION_DOT": -0.01874382, "MEAN_MOTION_DDOT": 0}, "tle": {"line1": "1 66622U 25271F   25346.16668980 -.01874382  00000+0 -34384-1 0  9990", "line2": "2 66622  53.1594 189.9600 0000749  82.7218  53.7397 15.52238444  4154"}}, "geometry": {"type": "Point", "coordinates": [-134.2709280705231, 38.710434325290485]}}, {"type": "Feature", "properties": {"norad_id": 66623, "name": "STARLINK-35920", "group": "last-30-days", "lat": 41.10163487248502, "lon": -130.3630532122978, "alt_km": 407.3834846895088, "timestamp": "2025-12-12T09:49:07.481989+00:00", "meta": {"OBJECT_NAME": "STARLINK-35920", "OBJECT_ID": "2025-271G", "EPOCH": "2025-12-12T04:00:01.998720", "MEAN_MOTION": 15.52243334, "ECCENTRICITY": 8.31e-05, "INCLINATION": 53.1596, "RA_OF_ASC_NODE": 189.9514, "ARG_OF_PERICENTER": 85.8003, "MEAN_ANOMALY": 54.4939, "EPHEMERIS_TYPE": 0, "CLASSIFICATION_TYPE": "U", "NORAD_CAT_ID": 66623, "ELEMENT_SET_NO": 999, "REV_AT_EPOCH": 415, "BSTAR": -0.034593, "MEAN_MOTION_DOT": -0.01884738, "MEAN_MOTION_DDOT": 0}, "tle": {"line1": "1 66623U 25271G   25346.16668980 -.01884738  00000+0 -34593-1 0  9999", "line2": "2 66623  53.1596 189.9514 0000831  85.8003  54.4939 15.52243334  4153"}}, "geometry": {"type": "Point", "coordinates": [-130.3630532122978, 41.10163487248502]}}, {"type": "Feature", "properties": {"norad_id": 66624, "name": "STARLINK-35927", "group": "last-30-days", "lat": 39.92367567162787, "lon": -132.34899234296796, "alt_km": 407.5067846038646, "timestamp": "2025-12-12T09:49:07.481999+00:00", "meta": {"OBJECT_NAME": "STARLINK-35927", "OBJECT_ID": "2025-271H", "EPOCH": "2025-12-12T04:00:01.998720", "MEAN_MOTION": 15.5224009, "ECCENTRICITY": 8.27e-05, "INCLINATION": 53.1594, "RA_OF_ASC_NODE": 189.9558, "ARG_OF_PERICENTER": 69.7159, "MEAN_ANOMALY": 68.6624, "EPHEMERIS_TYPE": 0, "CLASSIFICATION_TYPE": "U", "NORAD_CAT_ID": 66624, "ELEMENT_SET_NO": 999, "REV_AT_EPOCH": 415, "BSTAR": -0.034417, "MEAN_MOTION_DOT": -0.01876105, "MEAN_MOTION_DDOT": 0}, "tle": {"line1": "1 66624U 25271H   25346.16668980 -.01876105  00000+0 -34417-1 0  9994", "line2": "2 66624  53.1594 189.9558 0000827  69.7159  68.6624 15.52240090  4152"}}, "geometry": {"type": "Point", "coordinates": [-132.34899234296796, 39.92367567162787]}}, {"type": "Feature", "properties": {"norad_id": 66625, "name": "STARLINK-35929", "group": "last-30-days", "lat": 42.24482023263923, "lon": -128.30314906419875, "alt_km": 407.22447132947036, "timestamp": "2025-12-12T09:49:07.482011+00:00", "meta": {"OBJECT_NAME": "STARLINK-35929", "OBJECT_ID": "2025-271J", "EPOCH": "2025-12-12T04:00:01.998720", "MEAN_MOTION": 15.52239809, "ECCENTRICITY": 8.12e-05, "INCLINATION": 53.1594, "RA_OF_ASC_NODE": 189.9473, "ARG_OF_PERICENTER": 89.9182, "MEAN_ANOMALY": 52.2936, "EPHEMERIS_TYPE": 0, "CLASSIFICATION_TYPE": "U", "NORAD_CAT_ID": 66625, "ELEMENT_SET_NO": 999, "REV_AT_EPOCH": 415, "BSTAR": -0.034435, "MEAN_MOTION_DOT": -0.01876926, "MEAN_MOTION_DDOT": 0}, "tle": {"line1": "1 66625U 25271J   25346.16668980 -.01876926  00000+0 -34435-1 0  9996", "line2": "2 66625  53.1594 189.9473 0000812  89.9182  52.2936 15.52239809  4154"}}, "geometry": {"type": "Point", "coordinates": [-128.30314906419875, 42.24482023263923]}}, {"type": "Feature", "properties": {"norad_id": 66626, "name": "STARLINK-35902", "group": "last-30-days", "lat": 43.35210555578068, "lon": -126.16405784420428, "alt_km": 406.9681788590269, "timestamp": "2025-12-12T09:49:07.482022+00:00", "meta": {"OBJECT_NAME": "STARLINK-35902", "OBJECT_ID": "2025-271K", "EPOCH": "2025-12-12T04:00:01.998720", "MEAN_MOTION": 15.52243898, "ECCENTRICITY": 8.6e-05, "INCLINATION": 53.1596, "RA_OF_ASC_NODE": 189.9434, "ARG_OF_PERICENTER": 77.0608, "MEAN_ANOMALY": 67.0684, "EPHEMERIS_TYPE": 0, "CLASSIFICATION_TYPE": "U", "NORAD_CAT_ID": 66626, "ELEMENT_SET_NO": 999, "REV_AT_EPOCH": 415, "BSTAR": -0.034585, "MEAN_MOTION_DOT": -0.01884444, "MEAN_MOTION_DDOT": 0}, "tle": {"line1": "1 66626U 25271K   25346.16668980 -.01884444  00000+0 -34585-1 0  9997", "line2": "2 66626  53.1596 189.9434 0000860  77.0608  67.0684 15.52243898  4155"}}, "geometry": {"type": "Point", "coordinates": [-126.16405784420428, 43.35210555578068]}}, {"type": "Feature", "properties": {"norad_id": 66627, "name": "STARLINK-35904", "group": "last-30-days", "lat": 44.41453047432753, "lon": -123.95361443563203, "alt_km": 406.83734899201045, "timestamp": "2025-12-12T09:49:07.482033+00:00", "meta": {"OBJECT_NAME": "STARLINK-35904", "OBJECT_ID": "2025-271L", "EPOCH": "2025-12-12T04:00:01.998720", "MEAN_MOTION": 15.52239802, "ECCENTRICITY": 8.15e-05, "INCLINATION": 53.1595, "RA_OF_ASC_NODE": 189.9394, "ARG_OF_PERICENTER": 79.6286, "MEAN_ANOMALY": 66.4164, "EPHEMERIS_TYPE": 0, "CLASSIFICATION_TYPE": "U", "NORAD_CAT_ID": 66627, "ELEMENT_SET_NO": 999, "REV_AT_EPOCH": 399, "BSTAR": -0.034424, "MEAN_MOTION_DOT": -0.01876434, "MEAN_MOTION_DDOT": 0}, "tle": {"line1": "1 66627U 25271L   25346.16668980 -.01876434  00000+0 -34424-1 0  9990", "line2": "2 66627  53.1595 189.9394 0000815  79.6286  66.4164 15.52239802  3997"}}, "geometry": {"type": "Point", "coordinates": [-123.95361443563203, 44.41453047432753]}}]}